#aV2014 11 27  0  0  0.00000000     288 DD+AD WGS84 FIT  NGA
## 1820 345600.00000000   300.00000000 56988 0.0000000000000
+   32     1  2  3  4  5  6  7  8  9 10 11 12 13 14 15 16 17
+         18 19 20 21 22 23 24 25 26 27 28 29 30 31 32  0  0
+          0  0  0  0  0  0  0  0  0  0  0  0  0  0  0  0  0
+          0  0  0  0  0  0  0  0  0  0  0  0  0  0  0  0  0
+          0  0  0  0  0  0  0  0  0  0  0  0  0  0  0  0  0
++         2  2  2  2  2  2  2  2  2  2  2  2  2  2  2  2  2
++         2  2  2  2  2  2  2  2  2  2  2  2  2  2  2  0  0
++         0  0  0  0  0  0  0  0  0  0  0  0  0  0  0  0  0
++         0  0  0  0  0  0  0  0  0  0  0  0  0  0  0  0  0
++         0  0  0  0  0  0  0  0  0  0  0  0  0  0  0  0  0
%c cc cc ccc ccc cccc cccc cccc cccc ccccc ccccc ccccc ccccc
%c cc cc ccc ccc cccc cccc cccc cccc ccccc ccccc ccccc ccccc
%f  0.0000000  0.000000000  0.00000000000  0.000000000000000
%f  0.0000000  0.000000000  0.00000000000  0.000000000000000
%i    0    0    0    0      0      0      0      0         0
%i    0    0    0    0      0      0      0      0         0
/*      NGA, ST. LOUIS,MO.                                  
/*   EPHEMERIS COMPUTED FROM  1 DAYS OF DATA                
/*   EPOCHA SMOOTHER                                       
/* CCCCCCCCCCCCCCCCCCCCCCCCCCCCCCCCCCCCCCCCCCCCCCCCCCCCCCCCC
*  2014 11 27  7 50  0.00000000
P  1  11241.757874 -21705.423241 -10241.365948    -11.710842                    
V  1  10933.694614  -7464.268322  28117.820150      0.003847                    
P  2 -21040.814852  10974.778358 -11100.186590    532.491873                    
V  2   7465.184928 -13224.306830 -26941.557934      0.022216                    
P  3  25748.118885    989.392987  -7525.930407     25.304866                    
V  3   8499.435948   4575.330847  29633.510972      0.363577                    
P  4  17955.970851 -19374.065935   -335.043315     -3.663064                    
V  4   2768.833860   2526.445699  31426.621177     -0.005007                    
P  5 -23078.391453   3772.051642  12709.121188   -313.122194                    
V  5 -15118.238445  -6303.791814 -25302.231409      0.045752                    
P  6 -17510.481855  -1846.211995 -19894.460819     16.676952                    
V  6  16669.595391 -18979.188827 -12937.090608      0.062483                    
P  7    -74.815401 -18313.194621  19200.555295    416.697913                    
V  7  18253.480458 -16049.098099 -15661.413399      0.037103                    
P  8  18423.650892 -18194.182493   4197.291150     16.489386                    
V  8   5405.223210  -1491.900749 -32346.970283      0.001206                    
P  9  -7286.859883 -25535.472854   -133.548815    -14.413360                    
V  9   2811.605266   -637.180272 -31728.188557     -0.081419                    
P 10 -24801.879819  -9477.487512  -3956.404480   -151.635971                    
V 10   5131.447294  -1727.104626 -30520.359932     -0.017026                    
P 11  10857.094339 -24146.073605   -482.562440   -539.370706                    
V 11   4636.374368   2133.444059  30236.914098     -0.027805                    
P 12  -9196.741897  12209.709624 -21768.901493    249.283100                    
V 12 -26141.860440  -8262.007827   6636.270782      0.028280                    
P 13 -14993.444209  -9888.392751  19388.925645    -64.315465                    
V 13  -3016.647466 -24759.372434 -15009.068481     -0.034274                    
P 14  14117.402139  16330.033368 -15339.752523    111.828976                    
V 14   2221.618742  19779.120052  22615.106776     -0.036005                    
P 15  -5343.983841  20568.570125  15666.119861   -216.970911                    
V 15  -8914.778050 -18345.437897  21266.369892     -0.022226                    
P 16  23187.209856  -1682.667535  13119.014338   -177.655169                    
V 16  15394.384623   6253.696946 -25941.464800      0.028917                    
P 17 -14094.004053 -17467.076552 -14106.342968   -140.196025                    
V 17  -2456.691746 -18198.741959  24289.269283     -0.024291                    
P 18  14604.525841  15911.647408  16126.860225    361.135379                    
V 18 -19616.208905  -2281.077146  20302.685913      0.026345                    
P 19  10094.969277 -15656.091382  18582.648194   -489.939063                    
V 19   6021.838463  23384.981635  16719.809349     -0.016978                    
P 20   2442.349984 -15871.038435 -21359.871098    261.100197                    
V 20  26373.622519   4720.870289   -426.547229      0.041611                    
P 21   7037.173560  15335.870570  21102.924040   -397.084671                    
V 21 -18224.478749  17847.089516  -7538.625391     -0.020652                    
P 22  24063.748951  10083.090890   5642.007540    291.095654                    
V 22  -7570.084296   1999.076995  29682.698819      0.038500                    
P 23    622.752681 -24335.455795  -9965.259638    -70.309834                    
V 23   6521.924162  11680.848637 -28175.672270     -0.027582                    
P 24 -13585.872272  21647.692938  -7009.836172    -39.112921                    
V 24  -8252.390221   4473.908293  30002.229068     -0.007001                    
P 25   5608.887532  15797.398787 -20715.537549     12.303128                    
V 25 -25438.734825  -5609.693724 -11069.451485     -0.018764                    
P 26 -13105.326326   7877.488766  21021.813582   -137.112400                    
V 26  -5734.404819 -27686.857738   6864.753411     -0.131261                    
P 27  14214.773063  -5170.488307  21817.151339     32.886145                    
V 27   7822.668539  26594.379530   1278.351155      0.027759                    
P 28 -20719.934495 -13732.374242  10140.568812    401.259497                    
V 28  11786.045586   2232.834927  28771.201698      0.026662                    
P 29   4475.203365  26108.901433  -2151.635985    575.876648                    
V 29  -2994.452381  -2146.206645 -31815.078714      0.024081                    
P 30 -10433.607506 -11179.165654  21718.825476    -82.512966                    
V 30  20626.143689 -18315.733264    433.511913     -0.018898                    
P 31  18756.626663   -529.029415 -18776.269042    328.378415                    
V 31 -16484.857234  17478.735059 -16508.075846     -0.005957                    
P 32  17163.866701  -8086.889916 -18348.116561   -284.297491                    
V 32  21653.038200   9505.881600  16600.816631      0.089077                    
EOF
